OBJECT_NAME,OBJECT_ID,EPOCH,MEAN_MOTION,ECCENTRICITY,INCLINATION,RA_OF_ASC_NODE,ARG_OF_PERICENTER,MEAN_ANOMALY,EPHEMERIS_TYPE,CLASSIFICATION_TYPE,NORAD_CAT_ID,ELEMENT_SET_NO,REV_AT_EPOCH,BSTAR,MEAN_MOTION_DOT,MEAN_MOTION_DDOT
FENGYUN 3D,2017-072A,2026-07-24T06:53:58.356672,14.19746072,.00009989,99.0153,180.3849,355.3114,4.8052,0,U,43010,999,45025,.12527589E-3,.219E-5,0
NOAA 20 (JPSS-1),2017-073A,2026-07-24T06:55:30.489312,14.19517850,.00016807,98.7773,144.4227,114.1442,245.9910,0,U,43013,999,44973,.43701707E-4,.48E-6,0
GOES 17,2018-022A,2026-07-24T05:40:07.489920,1.00271785,.00007342,1.0292,85.1306,57.8345,154.5237,0,U,43226,999,3079,0,-.178E-5,0
SENTINEL-3B,2018-039A,2026-07-24T03:33:19.260576,14.26738369,.00013307,98.6229,272.1463,117.7682,242.3634,0,U,43437,999,42939,.55391E-4,.9E-6,0
FENGYUN 2H,2018-050A,2026-07-23T23:37:33.037824,1.00267369,.00020716,3.1237,78.6416,123.0926,173.3564,0,U,43491,999,2980,0,-.123E-5,0
METOP-C,2018-087A,2026-07-24T05:34:54.156000,14.21504708,.00020624,98.6623,264.1548,82.0881,278.0530,0,U,43689,999,40009,.55321226E-4,.78E-6,0
GEO-KOMPSAT-2A,2018-100A,2026-07-24T06:42:09.043776,1.00270689,.00025374,0.0151,100.4983,359.2485,71.0452,0,U,43823,999,2800,0,-.339E-5,0
METEOR-M2 2,2019-038A,2026-07-24T06:20:33.613152,14.24374616,.00001612,98.9174,193.1011,342.8448,17.2725,0,U,44387,999,36657,.52751629E-4,.76E-6,0
ARKTIKA-M 1,2021-016A,2026-07-17T21:31:16.955328,2.00610215,.72985164,63.2571,53.1467,270.0868,14.5016,0,U,47719,999,3940,0,-.295E-5,0
FENGYUN 3E,2021-062A,2026-07-24T06:24:51.429888,14.19908047,.00017765,98.7514,208.2637,23.8746,336.2512,0,U,49008,999,26184,.17313931E-3,.324E-5,0
GOES 18,2022-021A,2026-07-24T07:35:01.200768,1.00271536,.00005649,0.0190,79.7956,67.3211,131.6718,0,U,51850,999,696,0,0,0
NOAA 21 (JPSS-2),2022-150A,2026-07-24T04:18:48.541536,14.19542199,.00029342,98.7060,143.3477,88.6706,271.4807,0,U,54234,999,19179,.31391574E-4,.23E-6,0
METEOSAT-12 (MTG-I1),2022-170C,2026-07-24T06:05:27.562272,1.00270351,.00041899,0.7343,21.1916,81.3512,290.3876,0,U,54743,999,1335,0,-.4E-7,0
TIANMU-1 03,2023-039A,2026-07-24T06:55:57.493632,15.48261552,.00018037,97.5248,20.7422,349.5176,10.6036,0,U,55973,999,18657,.39543036E-3,.20785E-3,0
TIANMU-1 04,2023-039B,2026-07-24T07:52:36.187104,15.48893672,.00021507,97.5187,19.9404,334.8992,25.2153,0,U,55974,999,18659,.34464026E-3,.18502E-3,0
TIANMU-1 05,2023-039C,2026-07-24T06:30:53.007840,15.48182499,.00022044,97.5229,20.3255,22.6193,337.5154,0,U,55975,999,18655,.38274368E-3,.20058E-3,0
TIANMU-1 06,2023-039D,2026-07-24T06:27:55.029888,15.48787580,.00021997,97.5238,20.9970,10.5482,349.5814,0,U,55976,999,18658,.38445135E-3,.20579E-3,0
FENGYUN 3G,2023-055A,2026-07-24T06:52:47.786016,15.54138204,.00067695,49.9912,154.6375,99.5438,260.6295,0,U,56232,999,18577,.51977481E-3,.3417E-3,0
METEOR-M2 3,2023-091A,2026-07-24T08:05:55.154688,14.24049491,.00050237,98.6068,259.5512,69.8112,290.3607,0,U,57166,999,15980,.17023433E-4,-.4E-7,0
TIANMU-1 07,2023-101A,2026-07-24T07:31:21.528768,15.30201894,.00030347,97.2578,255.1337,45.6549,314.4940,0,U,57399,999,16732,.28076712E-3,.8132E-4,0
TIANMU-1 08,2023-101B,2026-07-24T08:17:21.175008,15.30205806,.00036765,97.2566,254.9303,20.1387,339.9998,0,U,57400,999,16732,.29921017E-3,.8673E-4,0
TIANMU-1 09,2023-101C,2026-07-24T07:52:10.121088,15.30249684,.00036119,97.2524,254.3102,43.4157,316.7368,0,U,57401,999,16732,.29422316E-3,.8539E-4,0
TIANMU-1 10,2023-101D,2026-07-24T07:06:31.502016,15.30222572,.0004777,97.2604,255.3676,28.3870,331.7631,0,U,57402,999,16731,.30433179E-3,.8829E-4,0
FENGYUN 3F,2023-111A,2026-07-24T07:41:52.279872,14.19944701,.00010983,98.6820,274.6342,74.8881,285.2417,0,U,57490,999,15413,.44634708E-4,.51E-6,0
ARKTIKA-M 2,2023-198A,2026-07-21T03:45:39.718944,2.00607150,.69126494,63.2169,150.5623,267.3229,18.7284,0,U,58584,999,1900,0,.142E-5,0
TIANMU-1 11,2023-205A,2026-07-24T08:03:37.147968,15.27338655,.00073753,97.3449,226.3168,222.1341,137.9332,0,U,58645,999,14319,.27017431E-3,.7166E-4,0
TIANMU-1 12,2023-205B,2026-07-24T07:26:10.112928,15.26997246,.00066615,97.3438,226.0332,203.4097,156.6840,0,U,58646,999,14317,.24240445E-3,.6354E-4,0
TIANMU-1 13,2023-205C,2026-07-24T08:13:32.285856,15.27165804,.00068746,97.3465,226.3502,177.9783,182.1486,0,U,58647,999,14317,.2839118E-3,.7494E-4,0
TIANMU-1 14,2023-205D,2026-07-24T07:50:41.330400,15.27209269,.00074603,97.3402,225.4873,184.9557,175.1610,0,U,58648,999,14317,.2764782E-3,.7306E-4,0
TIANMU-1 19,2023-208A,2026-07-24T06:14:06.440928,15.32092231,.00054149,97.4523,321.7680,166.9688,193.1695,0,U,58660,999,14300,.37166245E-3,.11447E-3,0
