{"epoch":1784902576,"count":18312,"objects":[{"id":"43010","name":"FENGYUN 3D","type":"PAYLOAD","l1":"1 43010U 17072A   26205.28748098  .00000219  00000-0  12528-3 0  9999","l2":"2 43010  99.0153 180.3849 0000999 355.3114   4.8052 14.19746072450255"},{"id":"43013","name":"NOAA 20","type":"PAYLOAD","l1":"1 43013U 17073A   26205.28854733  .00000048  00000-0  43702-4 0  9996","l2":"2 43013  98.7773 144.4227 0001681 114.1442 245.9910 14.19517850449739"},{"id":"43226","name":"GOES 17","type":"PAYLOAD","l1":"1 43226U 18022A   26205.23619780 -.00000178  00000-0  00000-0 0  9998","l2":"2 43226   1.0292  85.1306 0000734  57.8345 154.5237  1.00271785 30799"},{"id":"43437","name":"SENTINEL 3B","type":"PAYLOAD","l1":"1 43437U 18039A   26205.14813959  .00000090  00000-0  55391-4 0  9993","l2":"2 43437  98.6229 272.1463 0001331 117.7682 242.3634 14.26738369429394"},{"id":"43491","name":"FENGYUN 2H","type":"PAYLOAD","l1":"1 43491U 18050A   26204.98441016 -.00000123  00000-0  00000-0 0  9999","l2":"2 43491   3.1237  78.6416 0002072 123.0926 173.3564  1.00267369 29807"},{"id":"43689","name":"METOP-C","type":"PAYLOAD","l1":"1 43689U 18087A   26205.23257125  .00000078  00000-0  55321-4 0  9991","l2":"2 43689  98.6623 264.1548 0002062  82.0881 278.0530 14.21504708400093"},{"id":"43823","name":"GEO-KOMPSAT-2A","type":"PAYLOAD","l1":"1 43823U 18100A   26205.27927134 -.00000339  00000-0  00000-0 0  9996","l2":"2 43823   0.0151 100.4983 0002537 359.2485  71.0452  1.00270689 28009"},{"id":"44387","name":"METEOR M2-2","type":"PAYLOAD","l1":"1 44387U 19038A   26205.26427793  .00000076  00000-0  52752-4 0  9990","l2":"2 44387  98.9174 193.1011 0000161 342.8448  17.2725 14.24374616366572"},{"id":"47719","name":"ARKTIKA-M 1","type":"PAYLOAD","l1":"1 47719U 21016A   26198.89672402 -.00000295  00000-0  00000-0 0  9999","l2":"2 47719  63.2571  53.1467 7298516 270.0868  14.5016  2.00610215 39409"},{"id":"49008","name":"FENGYUN 3E","type":"PAYLOAD","l1":"1 49008U 21062A   26205.26726192  .00000324  00000-0  17314-3 0  9990","l2":"2 49008  98.7514 208.2637 0001776  23.8746 336.2512 14.19908047261842"},{"id":"51850","name":"GOES 18","type":"PAYLOAD","l1":"1 51850U 22021A   26205.31598612  .00000000  00000-0  00000-0 0  9996","l2":"2 51850   0.0190  79.7956 0000565  67.3211 131.6718  1.00271536  6963"},{"id":"54234","name":"NOAA 21","type":"PAYLOAD","l1":"1 54234U 22150A   26205.17972849  .00000023  00000-0  31392-4 0  9997","l2":"2 54234  98.7060 143.3477 0002934  88.6706 271.4807 14.19542199191793"},{"id":"54743","name":"METEOSAT 12 (MTG I1)","type":"PAYLOAD","l1":"1 54743U 22170C   26205.25379123 -.00000004  00000-0  00000-0 0  9997","l2":"2 54743   0.7343  21.1916 0004190  81.3512 290.3876  1.00270351 13352"},{"id":"55973","name":"TIANMU-1 03","type":"PAYLOAD","l1":"1 55973U 23039A   26205.28885988  .00020785  00000-0  39543-3 0  9996","l2":"2 55973  97.5248  20.7422 0001804 349.5176  10.6036 15.48261552186573"},{"id":"55974","name":"TIANMU-1 04","type":"PAYLOAD","l1":"1 55974U 23039B   26205.32819661  .00018502  00000-0  34464-3 0  9998","l2":"2 55974  97.5187  19.9404 0002151 334.8992  25.2153 15.48893672186593"},{"id":"55975","name":"TIANMU-1 05","type":"PAYLOAD","l1":"1 55975U 23039C   26205.27144685  .00020058  00000-0  38274-3 0  9992","l2":"2 55975  97.5229  20.3255 0002204  22.6193 337.5154 15.48182499186559"},{"id":"55976","name":"TIANMU-1 06","type":"PAYLOAD","l1":"1 55976U 23039D   26205.26938692  .00020579  00000-0  38445-3 0  9999","l2":"2 55976  97.5238  20.9970 0002200  10.5482 349.5814 15.48787580186584"},{"id":"56232","name":"FENGYUN 3G","type":"PAYLOAD","l1":"1 56232U 23055A   26205.28666419  .00034170  00000-0  51977-3 0  9997","l2":"2 56232  49.9912 154.6375 0006769  99.5438 260.6295 15.54138204185772"},{"id":"57166","name":"METEOR M2-3","type":"PAYLOAD","l1":"1 57166U 23091A   26205.33744392 -.00000004  00000-0  17023-4 0  9992","l2":"2 57166  98.6068 259.5512 0005024  69.8112 290.3607 14.24049491159809"},{"id":"57399","name":"TIANMU-1 07","type":"PAYLOAD","l1":"1 57399U 23101A   26205.31344362  .00008132  00000-0  28077-3 0  9992","l2":"2 57399  97.2578 255.1337 0003035  45.6549 314.4940 15.30201894167320"},{"id":"57400","name":"TIANMU-1 08","type":"PAYLOAD","l1":"1 57400U 23101B   26205.34538397  .00008673  00000-0  29921-3 0  9990","l2":"2 57400  97.2566 254.9303 0003677  20.1387 339.9998 15.30205806167322"},{"id":"57401","name":"TIANMU-1 09","type":"PAYLOAD","l1":"1 57401U 23101C   26205.32789492  .00008539  00000-0  29422-3 0  9990","l2":"2 57401  97.2524 254.3102 0003612  43.4157 316.7368 15.30249684167326"},{"id":"57402","name":"TIANMU-1 10","type":"PAYLOAD","l1":"1 57402U 23101D   26205.29619794  .00008829  00000-0  30433-3 0  9990","l2":"2 57402  97.2604 255.3676 0004777  28.3870 331.7631 15.30222572167316"},{"id":"57490","name":"FENGYUN 3F","type":"PAYLOAD","l1":"1 57490U 23111A   26205.32074398  .00000051  00000-0  44635-4 0  9996","l2":"2 57490  98.6820 274.6342 0001098  74.8881 285.2417 14.19944701154135"},{"id":"58584","name":"ARKTIKA-M 2","type":"PAYLOAD","l1":"1 58584U 23198A   26202.15670971  .00000142  00000-0  00000-0 0  9998","l2":"2 58584  63.2169 150.5623 6912649 267.3229  18.7284  2.00607150 19000"},{"id":"58645","name":"TIANMU-1 11","type":"PAYLOAD","l1":"1 58645U 23205A   26205.33584662  .00007166  00000-0  27017-3 0  9992","l2":"2 58645  97.3449 226.3168 0007375 222.1341 137.9332 15.27338655143192"},{"id":"58646","name":"TIANMU-1 12","type":"PAYLOAD","l1":"1 58646U 23205B   26205.30983927  .00006354  00000-0  24240-3 0  9990","l2":"2 58646  97.3438 226.0332 0006661 203.4097 156.6840 15.26997246143174"},{"id":"58647","name":"TIANMU-1 13","type":"PAYLOAD","l1":"1 58647U 23205C   26205.34273479  .00007494  00000-0  28391-3 0  9996","l2":"2 58647  97.3465 226.3502 0006875 177.9783 182.1486 15.27165804143179"},{"id":"58648","name":"TIANMU-1 14","type":"PAYLOAD","l1":"1 58648U 23205D   26205.32686725  .00007306  00000-0  27648-3 0  9993","l2":"2 58648  97.3402 225.4873 0007460 184.9557 175.1610 15.27209269143175"},{"id":"58660","name":"TIANMU-1 19","type":"PAYLOAD","l1":"1 58660U 23208A   26205.25979677  .00011447  00000-0  37166-3 0  9990","l2":"2 58660  97.4523 321.7680 0005415 166.9688 193.1695 15.32092231143003"}]}